P/2016 A2 (Christensen),e,26.4068,291.6142,141.5898,4.749966,0.0952069,0.27098499,174.8530,06/30.0/2020,2000,g 11.5,4.0
# From MPC115881
P/2016 A3 (PANSTARRS),e,8.5108,187.2881,340.9164,7.890328,0.0444694,0.38775946,51.4712,06/30.0/2020,2000,g 10.0,4.0
# From MPC109143
C/2016 A5 (PANSTARRS),e,40.2405,136.1848,321.4979,642.5487,0.0000605,0.99542052,0.0000,06/26.7378/2015,2000,g 13.5,4.0
# From MPC109143
C/2016 A6 (PANSTARRS),e,120.9354,300.3779,141.0517,206.1482,0.0003330,0.98833641,0.0000,11/06.4548/2015,2000,g 15.0,4.0
# From MPC102098
P/2016 A7 (PANSTARRS),e,16.6259,221.4810,352.6314,5.031072,0.0873400,0.56549147,138.6084,06/30.0/2020,2000,g 16.0,4.0
# From MPC106345
C/2016 A8 (LINEAR),e,148.2428,111.3308,130.3765,34.27820,0.0049111,0.94495779,6.8785,06/30.0/2020,2000,g 12.0,4.0
# From MPC107048
C/2016 B1 (NEOWISE),e,50.4629,231.9846,8.6787,442.8437,0.0001058,0.99274230,0.0000,12/04.7640/2016,2000,g  9.5,4.0
# From MPC109143
P/2016 BA14 (PANSTARRS),e,18.8953,180.5336,351.9033,3.024385,0.1873909,0.66522538,293.9764,06/30.0/2020,2000,g 21.0,4.0
# From MPC110494
C/2016 C1 (PANSTARRS),h,02/18.9219/2016,56.2224,181.8068,328.7632,1.002267,8.466446,2000,5.5,4.0
# From MPC101098
C/2016 C2 (NEOWISE),e,38.0736,24.4247,214.5508,65.98081,0.0018390,0.97625184,0.0000,04/19.5003/2016,2000,g 16.0,4.0
# From MPC110494
C/2016 E1 (PANSTARRS),h,06/04.2507/2017,131.8907,233.0639,47.4697,1.005865,8.179863,2000,6.5,4.0
# From MPC 99821
C/2016 E2 (Kowalski),e,135.9027,186.8663,321.9415,140.1234,0.0005942,0.99232282,0.0000,02/06.9158/2016,2000,g 20.0,4.0
# From MPC102098
P/2016 G1 (PANSTARRS),e,10.9689,204.0593,111.2859,2.582491,0.2374902,0.21098361,296.9638,06/30.0/2020,2000,g 14.0,4.0
# From MPEC 2017-D91
P/2016 J1-A (PANSTARRS),e,14.3248,199.8248,46.8863,3.174070,0.1742928,0.22818693,255.3729,06/30.0/2020,2000,g 16.5,4.0
# From MPEC 2017-A77
P/2016 J1-B (PANSTARRS),e,14.3276,199.8297,46.7775,3.173700,0.1743233,0.22803794,255.4923,06/30.0/2020,2000,g 17.0,4.0
# From MPC101099
C/2016 J2 (Denneau),e,130.3355,186.3729,318.6432,638.2228,0.0000611,0.99761713,0.0000,04/12.2058/2016,2000,g 17.0,4.0
# From MPC102099
C/2016 KA (Catalina),e,104.6874,317.5075,63.2007,6948,0.0000017,0.99922191,0.0000,02/02.3556/2016,2000,g  8.5,4.0
# From MPC104792
C/2016 K1 (LINEAR),e,90.9259,325.6236,18.2843,50973,0.0000001,0.99995499,0.0000,07/13.3409/2016,2000,g 13.0,4.0
# From MPC119995
C/2016 M1 (PANSTARRS),e,90.9990,92.2042,209.8798,4436,0.0000033,0.99950133,0.0000,08/10.3118/2018,2000,g  5.0,4.0
# From MPC115881
C/2016 N4 (MASTER),e,72.5997,354.0003,55.9381,2412,0.0000083,0.99867407,0.0000,09/16.4842/2017,2000,g  8.5,4.0
# From MPC119995
C/2016 N6 (PANSTARRS),e,105.8409,298.9905,162.7574,1700,0.0000141,0.99843068,0.0000,07/18.0959/2018,2000,g  7.0,4.0
# From MPC102099
P/2016 P1 (PANSTARRS),e,24.4555,319.5641,270.0607,3.194604,0.1726150,0.28933272,300.4258,06/30.0/2020,2000,g 15.0,4.0
# From MPC102099
C/2016 P4 (PANSTARRS),e,29.8808,320.7327,356.1721,399.1916,0.0001236,0.98523654,0.0000,10/18.0881/2016,2000,g 10.5,4.0
# From MPC118093
C/2016 Q2 (PANSTARRS),e,109.3891,322.2986,84.5024,21460,0.0000003,0.99966998,0.0000,05/11.5605/2021,2000,g  6.0,4.0
# From MPC102955
C/2016 Q4 (Kowalski),e,7.2575,271.2853,99.4016,16.90293,0.0141828,0.58081819,12.5534,06/30.0/2020,2000,g  7.0,4.0
# From MPC119995
C/2016 R2 (PANSTARRS),e,58.2255,80.5688,33.1802,551.7872,0.0000760,0.99528255,0.0000,05/09.2958/2018,2000,g  7.0,4.0
# From MPC102099
C/2016 R3 (Borisov),e,53.0419,78.6697,118.1974,199.9409,0.0003486,0.99773901,0.0000,10/10.4240/2016,2000,g 18.0,4.0
# From MPC109144
P/2016 R4 (Gibbs),e,10.8698,168.2810,174.0001,5.331450,0.0800638,0.47605977,115.2619,06/30.0/2020,2000,g 12.5,4.0
# From MPC105543
P/2016 S1 (PANSTARRS),e,94.6564,227.5259,273.2725,8.279144,0.0413738,0.71011033,49.7229,06/30.0/2020,2000,g 12.0,4.0
# From MPC105238
C/2016 T1 (Matheny),e,129.8476,56.2871,137.4170,123.8832,0.0007148,0.98140133,0.0000,02/01.2801/2017,2000,g 14.5,4.0
# From MPC107685
C/2016 T2 (Matheny),e,81.3757,339.1586,92.2413,99.13152,0.0009986,0.98076898,0.0000,12/29.0593/2016,2000,g 14.5,4.0
# From MPC110082
C/2016 T3 (PANSTARRS),e,22.6775,271.7410,194.6677,133.1082,0.0006418,0.98009246,0.0000,09/06.5320/2017,2000,g 10.5,4.0
# From MPC103847
C/2016 U1 (NEOWISE),h,01/13.9969/2017,46.3779,61.4809,162.8325,1.000404,0.322147,2000,17.0,4.0
# From MPC106345
C/2016 VZ18 (PANSTARRS),e,23.9822,98.9212,36.4205,168.3853,0.0004511,0.99457044,0.0000,03/05.9949/2017,2000,g 19.5,4.0
# From MPC106345
P/2016 WM48 (Lemmon),e,117.4262,59.9019,36.0827,8.167828,0.0422225,0.78404359,51.5903,06/30.0/2020,2000,g 15.0,4.0
# From MPC119995
C/2016 X1 (Lemmon),e,26.4542,256.4193,224.5180,1356,0.0000197,0.99442250,0.0000,04/29.0031/2019,2000,g  6.0,4.0
# From MPC108594
C/2017 A1 (PANSTARRS),e,49.7914,121.0458,2.0501,76.91530,0.0014611,0.97020105,0.0000,05/16.3784/2017,2000,g 13.0,4.0
# From MPC108594
C/2017 A3 (Elenin),e,98.5369,97.9073,304.0362,43.48130,0.0034376,0.91148248,4.2839,06/30.0/2020,2000,g  9.5,4.0
# From MPC114598
C/2017 AB5 (PANSTARRS),e,32.4360,42.6556,78.3498,2602,0.0000074,0.99645841,0.0000,02/16.0876/2018,2000,g  5.5,4.0
# From MPC119995
C/2017 B3 (LINEAR),h,02/02.6369/2019,54.1739,2.1796,284.7825,1.001888,3.922092,2000,6.0,4.0
# From MPC103847
P/2017 B4 (PANSTARRS),e,20.0584,121.4578,11.0197,4.410520,0.1064068,0.36495152,359.9130,01/05.0/2017,2000,g 14.5,4.0
# From MPC104793
C/2017 C1 (NEOWISE),e,65.7501,357.5104,110.1123,20.60730,0.0105359,0.92717613,13.2602,06/30.0/2020,2000,g 18.0,4.0
# From MPC107685
C/2017 C2 (PANSTARRS),e,118.5881,249.8028,138.6354,96.99974,0.0010317,0.97500788,0.0000,01/21.5977/2017,2000,g 14.0,4.0
# From MPC104793
P/2017 D1 (Fuls),e,20.7576,82.1797,8.0898,4.829978,0.0928509,0.43648906,136.1094,06/30.0/2020,2000,g 14.0,4.0
# From MPC112391
C/2017 D2 (Barros),e,31.2568,330.9706,334.4756,3411,0.0000049,0.99927044,0.0000,07/14.8631/2017,2000,g 11.0,4.0
# From MPC114598
C/2017 D3 (ATLAS),h,04/27.3064/2017,125.5801,186.6587,340.8602,1.002099,4.973963,2000,8.0,4.0
# From MPC110495
P/2017 D4 (PANSTARRS),e,10.5289,264.9388,212.3167,7.567333,0.0473467,0.62851562,65.9640,06/30.0/2020,2000,g 13.0,4.0
# From MPC104794
C/2017 D5 (PANSTARRS),e,131.0583,92.7336,287.7735,114.9112,0.0008001,0.98118475,0.0000,01/09.4249/2017,2000,g 16.0,4.0
# From MPC106346
C/2017 E1 (Borisov),h,04/10.5460/2017,14.5680,142.5929,152.6426,1.003025,0.900983,2000,14.0,4.0
# From MPC109144
C/2017 E2 (Tsuchinshan),e,79.0537,11.5908,89.3814,21.53638,0.0098615,0.89082114,14.8958,06/30.0/2020,2000,g 11.5,4.0
# From MPC115882
C/2017 E3 (PANSTARRS),h,06/08.1353/2017,70.6295,220.7341,334.5210,1.006922,5.937723,2000,6.5,4.0
# From MPC105239
C/2017 E4 (Lovejoy),h,04/23.5919/2017,88.1088,223.0792,87.0674,1.001502,0.491253,2000,17.0,4.0
# From MPC105239
C/2017 E5 (Lemmon),e,122.6641,206.3128,306.9078,391.2005,0.0001274,0.99542841,0.0000,06/10.5927/2016,2000,g 13.0,4.0
# From MPC111769
C/2017 F1 (Lemmon),h,11/30.4556/2017,146.4669,158.7833,64.7757,1.003986,4.496900,2000,10.5,4.0
# From MPC114598
C/2017 F2 (PANSTARRS),h,11/27.6853/2017,42.5143,38.6711,135.0481,1.004180,6.932016,2000,7.5,4.0
# From MPC104794
P/2017 G1 (PANSTARRS),e,4.7737,249.6269,224.5685,7.290829,0.0500655,0.65307573,76.2971,06/30.0/2020,2000,g 13.5,4.0
# From MPC108595
P/2017 G2 (PANSTARRS),e,47.9478,79.7908,105.5862,8.074033,0.0429604,0.64844917,47.8596,06/30.0/2020,2000,g 13.0,4.0
# From MPC109144
C/2017 G3 (PANSTARRS),e,159.0587,279.4802,73.1493,310.7862,0.0001799,0.99166336,0.0000,04/15.5683/2017,2000,g 14.0,4.0
# From MPC115882
C/2017 K1 (PANSTARRS),h,03/17.1718/2018,154.0111,225.6555,4.3813,1.001719,7.289307,2000,7.0,4.0
# From MPC119995
C/2017 K2 (PANSTARRS),h,12/19.9540/2022,87.5432,88.2648,236.1632,1.000430,1.799322,2000,1.5,4.0
# From MPC106346
P/2017 K3 (Gasparovic),e,4.2743,354.2950,253.4483,5.580828,0.0747577,0.58079218,84.1303,06/30.0/2020,2000,g 14.5,4.0
# From MPC114598
C/2017 K4 (ATLAS),e,16.6807,298.8677,15.2113,28.45612,0.0064929,0.90687943,5.8671,06/30.0/2020,2000,g 10.0,4.0
# From MPC119995
C/2017 K5 (PANSTARRS),h,03/25.1869/2020,82.2557,102.3742,171.9026,1.006842,7.678895,2000,5.0,4.0
# From MPC114599
C/2017 K6 (Jacques),e,57.2532,85.0491,303.7636,1055,0.0000287,0.99810574,0.0000,01/03.2572/2018,2000,g 11.0,4.0
# From MPC110083
C/2017 M3 (PANSTARRS),e,77.5399,7.0086,110.3543,167.3759,0.0004552,0.97216926,0.0000,04/28.1540/2017,2000,g 10.5,4.0
# From MPC118093
C/2017 M4 (ATLAS),h,01/17.8894/2019,105.6450,65.8663,167.5731,1.001169,3.252023,2000,6.0,4.0
# From MPC118841
C/2017 M5 (TOTAS),h,06/03.9116/2018,15.8808,216.2768,92.7332,1.005204,5.992176,2000,6.5,4.0
# From MPC114599
C/2017 O1 (ASASSN),e,39.8844,25.7735,20.8520,356.8868,0.0001462,0.99580877,0.0000,10/14.7574/2017,2000,g 11.0,4.0
# From MPC114599
P/2017 P1 (PANSTARRS),e,7.6983,221.4012,122.2156,7.890114,0.0444712,0.31045999,33.0315,06/30.0/2020,2000,g 10.0,4.0
# From MPC114599
C/2017 P2 (PANSTARRS),e,50.0582,165.5011,132.3278,1979,0.0000112,0.99875511,0.0000,12/06.6925/2017,2000,g 10.0,4.0
# From MPC114599
P/2017 R1 (PANSTARRS),e,2.5737,143.6207,178.5333,4.134883,0.1172220,0.19561374,138.0212,06/30.0/2020,2000,g 13.5,4.0
# From MPC108595
C/2017 S2 (PANSTARRS),e,12.6796,62.4124,305.9386,20.51397,0.0106079,0.82394772,10.9843,06/30.0/2020,2000,g 13.0,4.0
# From MPC114599
C/2017 S3 (PANSTARRS),h,08/15.9715/2018,99.1122,171.1473,255.8429,1.000049,0.208359,2000,11.0,4.0
# From MPC114599
P/2017 S5 (ATLAS),e,11.8504,252.3837,99.8359,3.168789,0.1747286,0.31391306,186.5440,06/30.0/2020,2000,g 14.0,4.0
# From MPC109591
C/2017 S6 (Catalina),h,02/26.6035/2018,152.8675,131.0434,134.7939,1.000671,1.542367,2000,12.5,4.0
# From MPC114599
C/2017 S7 (Lemmon),h,05/25.7589/2017,124.2322,262.7901,187.6149,1.001006,7.608837,2000,7.0,4.0
# From MPC114599
P/2017 S8 (PANSTARRS),e,29.8207,191.7026,254.7256,2.778707,0.2127845,0.39246697,188.1175,06/30.0/2020,2000,g 16.0,4.0
# From MPC107050
